{
  "name": "SATGUS",
  "line1": "1 62713U 25009DJ  26036.67693523  .00010915  00000+0  89764-3 0  9995",
  "line2": "2 62713  97.7127 119.2528 0002667 209.8218 150.2853 14.99303833 57844",
  "fetched_at": "2026-02-06T00:22:57.782852+00:00"
}